start=new Date('2022-01-25T00:00:00.000Z').valueOf();
sats=[{"TIME_SYSTEM":"UTC","FILE":"3282614","BSTAR":"0.00013340000000","CENTER_NAME":"EARTH","REV_AT_EPOCH":"11304","REF_FRAME":"TEME","CLASSIFICATION_TYPE":"U","ELEMENT_SET_NO":"999","EPHEMERIS_TYPE":"0","TLE_LINE2":"2 44915  53.0527 261.8716 0001870  72.2916 287.8277 15.06397844113048","GP_ID":"194567968","RCS_SIZE":"LARGE","PERIOD":"95.592","ARG_OF_PERICENTER":"72.2916","PERIAPSIS":"545.925","OBJECT_ID":"2020-001B","DECAY_DATE":null,"OBJECT_NAME":"STARLINK-1084","TLE_LINE1":"1 44915U 20001B   22024.90181620  .00001706  00000-0  13340-3 0  9991","OBJECT_TYPE":"PAYLOAD","SITE":"AFETR","MEAN_MOTION_DOT":"0.00001706","SEMIMAJOR_AXIS":"6925.355","LAUNCH_DATE":"2020-01-07","MEAN_ELEMENT_THEORY":"SGP4","NORAD_CAT_ID":"44915","COUNTRY_CODE":"US","RA_OF_ASC_NODE":"261.8716","APOAPSIS":"548.515","MEAN_MOTION_DDOT":"0.0000000000000","MEAN_MOTION":"15.06397844","EPOCH":"2022-01-24T21:38:36.919680","INCLINATION":"53.0527","MEAN_ANOMALY":"287.8277","ECCENTRICITY":"0.00018700"},{"NORAD_CAT_ID":"44917","MEAN_ELEMENT_THEORY":"SGP4","SEMIMAJOR_AXIS":"6925.360","LAUNCH_DATE":"2020-01-07","MEAN_MOTION_DOT":"-0.00000585","OBJECT_TYPE":"PAYLOAD","TLE_LINE1":"1 44917U 20001D   22024.90548770 -.00000585  00000-0 -20354-4 0  9996","SITE":"AFETR","ECCENTRICITY":"0.00017190","INCLINATION":"53.0525","MEAN_ANOMALY":"296.9395","EPOCH":"2022-01-24T21:43:54.137280","MEAN_MOTION":"15.06396163","MEAN_MOTION_DDOT":"0.0000000000000","APOAPSIS":"548.416","COUNTRY_CODE":"US","RA_OF_ASC_NODE":"261.8621","RCS_SIZE":"LARGE","GP_ID":"194569219","TLE_LINE2":"2 44917  53.0525 261.8621 0001719  63.1769 296.9395 15.06396163113045","ELEMENT_SET_NO":"999","CLASSIFICATION_TYPE":"U","EPHEMERIS_TYPE":"0","CENTER_NAME":"EARTH","BSTAR":"-0.00002035400000","REF_FRAME":"TEME","REV_AT_EPOCH":"11304","FILE":"3282614","TIME_SYSTEM":"UTC","OBJECT_NAME":"STARLINK-1098","DECAY_DATE":null,"OBJECT_ID":"2020-001D","PERIAPSIS":"546.035","ARG_OF_PERICENTER":"63.1769","PERIOD":"95.592"},{"NORAD_CAT_ID":"44918","MEAN_ELEMENT_THEORY":"SGP4","LAUNCH_DATE":"2020-01-07","SEMIMAJOR_AXIS":"6925.353","MEAN_MOTION_DOT":"-0.00000442","TLE_LINE1":"1 44918U 20001E   22024.91654318 -.00000442  00000-0 -10782-4 0  9990","OBJECT_TYPE":"PAYLOAD","SITE":"AFETR","ECCENTRICITY":"0.00017090","INCLINATION":"53.0517","MEAN_ANOMALY":"289.4295","EPOCH":"2022-01-24T21:59:49.330752","MEAN_MOTION":"15.06398504","MEAN_MOTION_DDOT":"0.0000000000000","APOAPSIS":"548.402","COUNTRY_CODE":"US","RA_OF_ASC_NODE":"261.8194","RCS_SIZE":"LARGE","GP_ID":"194568963","TLE_LINE2":"2 44918  53.0517 261.8194 0001709  70.6878 289.4295 15.06398504113783","ELEMENT_SET_NO":"999","CLASSIFICATION_TYPE":"U","EPHEMERIS_TYPE":"0","REF_FRAME":"TEME","REV_AT_EPOCH":"11378","CENTER_NAME":"EARTH","BSTAR":"-0.00001078200000","FILE":"3282614","TIME_SYSTEM":"UTC","OBJECT_NAME":"STARLINK-1099","DECAY_DATE":null,"OBJECT_ID":"2020-001E","PERIAPSIS":"546.035","ARG_OF_PERICENTER":"70.6878","PERIOD":"95.592"},{"ARG_OF_PERICENTER":"64.9124","PERIOD":"95.592","OBJECT_ID":"2020-001G","PERIAPSIS":"545.847","OBJECT_NAME":"STARLINK-1102","DECAY_DATE":null,"BSTAR":"0.00000538240000","CENTER_NAME":"EARTH","REV_AT_EPOCH":"11304","REF_FRAME":"TEME","TIME_SYSTEM":"UTC","FILE":"3282614","TLE_LINE2":"2 44920  53.0531 261.7441 0001952  64.9124 295.2067 15.06404872113043","ELEMENT_SET_NO":"999","CLASSIFICATION_TYPE":"U","EPHEMERIS_TYPE":"0","RCS_SIZE":"LARGE","GP_ID":"194568218","APOAPSIS":"548.550","RA_OF_ASC_NODE":"261.7441","COUNTRY_CODE":"US","MEAN_MOTION_DDOT":"0.0000000000000","EPOCH":"2022-01-24T22:21:03.074976","MEAN_MOTION":"15.06404872","ECCENTRICITY":"0.00019520","MEAN_ANOMALY":"295.2067","INCLINATION":"53.0531","TLE_LINE1":"1 44920U 20001G   22024.93128559 -.00000202  00000-0  53824-5 0  9996","SITE":"AFETR","OBJECT_TYPE":"PAYLOAD","LAUNCH_DATE":"2020-01-07","SEMIMAJOR_AXIS":"6925.334","MEAN_MOTION_DOT":"-0.00000202","MEAN_ELEMENT_THEORY":"SGP4","NORAD_CAT_ID":"44920"},{"DECAY_DATE":null,"OBJECT_NAME":"STARLINK-1103","PERIOD":"95.592","ARG_OF_PERICENTER":"67.2417","PERIAPSIS":"545.563","OBJECT_ID":"2020-001H","GP_ID":"194568468","RCS_SIZE":"LARGE","FILE":"3282614","TIME_SYSTEM":"UTC","CENTER_NAME":"EARTH","BSTAR":"0.00001295900000","REF_FRAME":"TEME","REV_AT_EPOCH":"11301","ELEMENT_SET_NO":"999","CLASSIFICATION_TYPE":"U","EPHEMERIS_TYPE":"0","TLE_LINE2":"2 44921  53.0507 261.9389 0002349  67.2417 292.8820 15.06407804113017","MEAN_MOTION":"15.06407804","EPOCH":"2022-01-24T21:17:21.075936","INCLINATION":"53.0507","MEAN_ANOMALY":"292.8820","ECCENTRICITY":"0.00023490","COUNTRY_CODE":"US","RA_OF_ASC_NODE":"261.9389","APOAPSIS":"548.816","MEAN_MOTION_DDOT":"0.0000000000000","MEAN_ELEMENT_THEORY":"SGP4","NORAD_CAT_ID":"44921","TLE_LINE1":"1 44921U 20001H   22024.88704949 -.00000089  00000-0  12959-4 0  9990","OBJECT_TYPE":"PAYLOAD","SITE":"AFETR","MEAN_MOTION_DOT":"-0.00000089","SEMIMAJOR_AXIS":"6925.325","LAUNCH_DATE":"2020-01-07"},{"MEAN_ELEMENT_THEORY":"SGP4","NORAD_CAT_ID":"44922","SITE":"AFETR","TLE_LINE1":"1 44922U 20001J   22024.92022872 -.00000498  00000-0 -14510-4 0  9994","OBJECT_TYPE":"PAYLOAD","SEMIMAJOR_AXIS":"6925.353","LAUNCH_DATE":"2020-01-07","MEAN_MOTION_DOT":"-0.00000498","EPOCH":"2022-01-24T22:05:07.761408","MEAN_MOTION":"15.06398392","ECCENTRICITY":"0.00017430","MEAN_ANOMALY":"290.7878","INCLINATION":"53.0524","APOAPSIS":"548.426","COUNTRY_CODE":"US","RA_OF_ASC_NODE":"261.7863","MEAN_MOTION_DDOT":"0.0000000000000","RCS_SIZE":"LARGE","GP_ID":"194568720","CENTER_NAME":"EARTH","BSTAR":"-0.00001451000000","REV_AT_EPOCH":"11304","REF_FRAME":"TEME","TIME_SYSTEM":"UTC","FILE":"3282614","TLE_LINE2":"2 44922  53.0524 261.7863 0001743  69.3297 290.7878 15.06398392113042","CLASSIFICATION_TYPE":"U","ELEMENT_SET_NO":"999","EPHEMERIS_TYPE":"0","OBJECT_NAME":"STARLINK-1104","DECAY_DATE":null,"ARG_OF_PERICENTER":"69.3297","PERIOD":"95.592","OBJECT_ID":"2020-001J","PERIAPSIS":"546.011"},{"REV_AT_EPOCH":"11303","REF_FRAME":"TEME","CENTER_NAME":"EARTH","BSTAR":"-0.00000007488500","TIME_SYSTEM":"UTC","FILE":"3282614","TLE_LINE2":"2 44923  53.0528 261.9694 0001814  69.4915 290.6269 15.06401194113035","ELEMENT_SET_NO":"999","EPHEMERIS_TYPE":"0","CLASSIFICATION_TYPE":"U","RCS_SIZE":"LARGE","GP_ID":"194569463","ARG_OF_PERICENTER":"69.4915","PERIOD":"95.592","OBJECT_ID":"2020-001K","PERIAPSIS":"545.954","OBJECT_NAME":"STARLINK-1106","DECAY_DATE":null,"TLE_LINE1":"1 44923U 20001K   22024.87968518 -.00000283  00000-0 -74885-7 0  9991","OBJECT_TYPE":"PAYLOAD","SITE":"AFETR","SEMIMAJOR_AXIS":"6925.345","LAUNCH_DATE":"2020-01-07","MEAN_MOTION_DOT":"-0.00000283","MEAN_ELEMENT_THEORY":"SGP4","NORAD_CAT_ID":"44923","APOAPSIS":"548.466","RA_OF_ASC_NODE":"261.9694","COUNTRY_CODE":"US","MEAN_MOTION_DDOT":"0.0000000000000","EPOCH":"2022-01-24T21:06:44.799552","MEAN_MOTION":"15.06401194","ECCENTRICITY":"0.00018140","INCLINATION":"53.0528","MEAN_ANOMALY":"290.6269"},{"ECCENTRICITY":"0.00019450","INCLINATION":"53.0532","MEAN_ANOMALY":"292.5266","EPOCH":"2022-01-24T22:26:21.836544","MEAN_MOTION":"15.06421016","MEAN_MOTION_DDOT":"0.0000000000000","APOAPSIS":"548.496","RA_OF_ASC_NODE":"261.7279","COUNTRY_CODE":"US","NORAD_CAT_ID":"44924","MEAN_ELEMENT_THEORY":"SGP4","LAUNCH_DATE":"2020-01-07","SEMIMAJOR_AXIS":"6925.284","MEAN_MOTION_DOT":"0.00004300","SITE":"AFETR","TLE_LINE1":"1 44924U 20001L   22024.93497496  .00004300  00000-0  30721-3 0  9990","OBJECT_TYPE":"PAYLOAD","OBJECT_NAME":"STARLINK-1111","DECAY_DATE":null,"OBJECT_ID":"2020-001L","PERIAPSIS":"545.802","ARG_OF_PERICENTER":"67.5929","PERIOD":"95.591","RCS_SIZE":"LARGE","GP_ID":"194567719","TLE_LINE2":"2 44924  53.0532 261.7279 0001945  67.5929 292.5266 15.06421016113041","ELEMENT_SET_NO":"999","CLASSIFICATION_TYPE":"U","EPHEMERIS_TYPE":"0","REV_AT_EPOCH":"11304","REF_FRAME":"TEME","CENTER_NAME":"EARTH","BSTAR":"0.00030721000000","FILE":"3282614","TIME_SYSTEM":"UTC"},{"RCS_SIZE":"LARGE","GP_ID":"194567969","TLE_LINE2":"2 44925  53.0538 261.9531 0002046  58.2634 301.8554 15.06401950113032","ELEMENT_SET_NO":"999","EPHEMERIS_TYPE":"0","CLASSIFICATION_TYPE":"U","CENTER_NAME":"EARTH","BSTAR":"0.00012128000000","REV_AT_EPOCH":"11303","REF_FRAME":"TEME","FILE":"3282614","TIME_SYSTEM":"UTC","OBJECT_NAME":"STARLINK-1112","DECAY_DATE":null,"OBJECT_ID":"2020-001M","PERIAPSIS":"545.791","ARG_OF_PERICENTER":"58.2634","PERIOD":"95.592","NORAD_CAT_ID":"44925","MEAN_ELEMENT_THEORY":"SGP4","SEMIMAJOR_AXIS":"6925.343","LAUNCH_DATE":"2020-01-07","MEAN_MOTION_DOT":"0.00001525","TLE_LINE1":"1 44925U 20001M   22024.88337973  .00001525  00000-0  12128-3 0  9995","SITE":"AFETR","OBJECT_TYPE":"PAYLOAD","ECCENTRICITY":"0.00020460","MEAN_ANOMALY":"301.8554","INCLINATION":"53.0538","EPOCH":"2022-01-24T21:12:04.008672","MEAN_MOTION":"15.06401950","MEAN_MOTION_DDOT":"0.0000000000000","APOAPSIS":"548.625","COUNTRY_CODE":"US","RA_OF_ASC_NODE":"261.9531"},{"OBJECT_NAME":"STARLINK-1113","DECAY_DATE":null,"OBJECT_ID":"2020-001N","PERIAPSIS":"548.415","ARG_OF_PERICENTER":"69.9685","PERIOD":"95.644","RCS_SIZE":"LARGE","GP_ID":"194569220","TLE_LINE2":"2 44926  52.9991 261.9664 0001848  69.9685 290.1501 15.05590709113756","ELEMENT_SET_NO":"999","CLASSIFICATION_TYPE":"U","EPHEMERIS_TYPE":"0","REF_FRAME":"TEME","REV_AT_EPOCH":"11375","CENTER_NAME":"EARTH","BSTAR":"0.00014883000000","TIME_SYSTEM":"UTC","FILE":"3282614","ECCENTRICITY":"0.00018480","INCLINATION":"52.9991","MEAN_ANOMALY":"290.1501","EPOCH":"2022-01-24T21:09:18.887040","MEAN_MOTION":"15.05590709","MEAN_MOTION_DDOT":"0.0000000000000","APOAPSIS":"550.975","COUNTRY_CODE":"US","RA_OF_ASC_NODE":"261.9664","NORAD_CAT_ID":"44926","MEAN_ELEMENT_THEORY":"SGP4","LAUNCH_DATE":"2020-01-07","SEMIMAJOR_AXIS":"6927.830","MEAN_MOTION_DOT":"0.00001890","TLE_LINE1":"1 44926U 20001N   22024.88146860  .00001890  00000-0  14883-3 0  9994","OBJECT_TYPE":"PAYLOAD","SITE":"AFETR"}];
